DMSP 5D-3 F16 (USA 172) 
1 28054U 03048A   25317.82375000  .00000400  00000+0  23265-3 0  9991
2 28054  99.0073 335.0495 0007794  43.4326 303.4777 14.14409338139031
METEOSAT-9 (MSG-2)      
1 28912U 05049B   25316.89261602  .00000124  00000+0  00000+0 0  9996
2 28912   8.8705  56.2423 0010223 310.2970  52.6744  1.00274218  4832
DMSP 5D-3 F17 (USA 191) 
1 29522U 06050A   25317.84799587  .00000463  00000+0  26192-3 0  9991
2 29522  98.7403 323.8372 0009372 315.4685  44.5735 14.14901583981961
FENGYUN 3A              
1 32958U 08026A   25317.78602214  .00000340  00000+0  18201-3 0  9992
2 32958  98.6650 257.9293 0009382  34.4522 325.7261 14.19501069904849
GOES 14                 
1 35491U 09033A   25317.64690618 -.00000067  00000+0  00000+0 0  9997
2 35491   1.1222  85.7319 0004088 140.1466 311.5925  1.00272603  4435
DMSP 5D-3 F18 (USA 210) 
1 35951U 09057A   25317.87101588  .00000560  00000+0  31343-3 0  9997
2 35951  98.8802 294.4211 0011605 138.4306 221.7752 14.14745936829145
EWS-G2 (GOES 15)        
1 36411U 10008A   25316.62335794  .00000031  00000+0  00000+0 0  9992
2 36411   0.7366  85.8862 0006464 161.0094  91.3189  1.00277189 57465
COMS 1                  
1 36744U 10032A   25317.83554163 -.00000341  00000+0  00000+0 0  9990
2 36744   4.2711  78.3084 0000940 183.2600 220.5888  1.00270270 48930
FENGYUN 3B              
1 37214U 10059A   25317.82528067  .00000340  00000+0  19955-3 0  9996
2 37214  98.9951 357.5946 0023081  77.8124  11.0828 14.14778660776972
SUOMI NPP               
1 37849U 11061A   25317.86480654  .00000321  00000+0  17318-3 0  9997
2 37849  98.7726 255.4727 0000741 177.3145 182.8035 14.19543619727897
METEOSAT-10 (MSG-3)     
1 38552U 12035B   25317.66839964 -.00000005  00000+0  00000+0 0  9997
2 38552   4.1597  61.7821 0000387 206.0319  25.9792  1.00269612 48693
METOP-B                 
1 38771U 12049A   25317.79111110  .00000400  00000+0  20333-3 0  9998
2 38771  98.6842   8.2345 0001489 225.9021 134.2034 14.21392909682665
INSAT-3D                
1 39216U 13038B   25317.83680668 -.00000337  00000+0  00000+0 0  9991
2 39216   1.3684  85.3285 0001080 156.3172 242.3601  1.00273619 44926
FENGYUN 3C              
1 39260U 13052A   25317.90851206  .00000419  00000+0  23459-3 0  9999
2 39260  98.4732 296.9999 0013592 284.6674  75.2994 14.15683894628107
METEOR-M 2              
1 40069U 14037A   25317.88669978  .00000552  00000+0  27215-3 0  9994
2 40069  98.4871 296.5817 0004860 310.6551  49.4204 14.21371018588737
HIMAWARI-8              
1 40267U 14060A   25317.85817882 -.00000275  00000+0  00000+0 0  9998
2 40267   0.0316 142.1437 0001315 139.8492 220.8245  1.00270962 40609
FENGYUN 2G              
1 40367U 14090A   25317.86076225 -.00000300  00000+0  00000+0 0  9990
2 40367   5.0939  75.4320 0002753 190.7503 196.5833  1.00276833 39840
METEOSAT-11 (MSG-4)     
1 40732U 15034A   25317.81297321  .00000064  00000+0  00000+0 0  9998
2 40732   2.6616  72.0658 0000485 111.1424 171.9106  1.00271656  5051
ELEKTRO-L 2             
1 41105U 15074A   25317.66553964 -.00000114  00000+0  00000+0 0  9995
2 41105   6.1514  73.1720 0003580 192.4513  12.5401  1.00271445 36344
INSAT-3DR               
1 41752U 16054A   25317.67491252 -.00000078  00000+0  00000+0 0  9993
2 41752   0.1088  87.3850 0013858 179.7688 102.8690  1.00272097 33651
HIMAWARI-9              
1 41836U 16064A   25316.91150948 -.00000277  00000+0  00000+0 0  9998
2 41836   0.0476  92.1816 0001481 148.3758 280.6688  1.00273897 33043
GOES 16                 
1 41866U 16071A   25317.50494536 -.00000092  00000+0  00000+0 0  9994
2 41866   0.0746  84.1652 0003143 163.9262 241.8936  1.00271624 32944
FENGYUN 4A              
1 41882U 16077A   25317.83559333 -.00000355  00000+0  00000+0 0  9993
2 41882   1.7748  82.6457 0004943 154.0645 241.1161  1.00271615 32777
CYGFM05                 
1 41884U 16078A   25317.82688197  .00036469  00000+0  71559-3 0  9991
2 41884  34.9591 235.7914 0011619 274.0375  85.9018 15.46232183495289
CYGFM04                 
1 41885U 16078B   25317.83004963  .00039409  00000+0  71465-3 0  9999
2 41885  34.9340 211.3051 0010621 299.7779  60.1886 15.48493350495452
CYGFM02                 
1 41886U 16078C   25317.79119140  .00042625  00000+0  73096-3 0  9995
2 41886  34.9427 210.2929 0012124 298.0986  61.8510 15.50041721495572
CYGFM01                 
1 41887U 16078D   25317.82943051  .00037498  00000+0  72217-3 0  9992
2 41887  34.9423 238.3223 0011188 266.3311  93.6131 15.46771178495221
CYGFM08                 
1 41888U 16078E   25317.84249104  .00038642  00000+0  71496-3 0  9993
2 41888  34.9451 221.5530 0012842 288.0868  71.8455 15.47894449495454
CYGFM07                 
1 41890U 16078G   25317.79074413  .00039257  00000+0  71335-3 0  9994
2 41890  34.9467 211.0289 0010847 303.7516  56.2171 15.48433568495462
CYGFM03                 
1 41891U 16078H   25317.81860197  .00039336  00000+0  71705-3 0  9999
2 41891  34.9422 212.7483 0010251 291.9765  67.9868 15.48349642495440
FENGYUN 3D              
1 43010U 17072A   25317.84233881  .00000394  00000+0  20799-3 0  9995
2 43010  98.9849 283.7258 0000971 346.4714  13.6435 14.19671769414437
NOAA 20 (JPSS-1)        
1 43013U 17073A   25317.80919919  .00000282  00000+0  15473-3 0  9997
2 43013  98.7552 254.4290 0001537 128.9315 231.1998 14.19514654413911
GOES 17                 
1 43226U 18022A   25317.79329977 -.00000182  00000+0  00000+0 0  9991
2 43226   0.3828  89.7100 0003262 174.3771 345.1748  1.00271645 28264
FENGYUN 2H              
1 43491U 18050A   25317.83881326 -.00000128  00000+0  00000+0 0  9992
2 43491   2.4749  81.6447 0002679 156.0271 196.7715  1.00273928 27271
METOP-C                 
1 43689U 18087A   25317.82190536  .00000394  00000+0  20004-3 0  9990
2 43689  98.6970  16.0285 0002170  87.1869 272.9556 14.21496346364236
GEO-KOMPSAT-2A          
1 43823U 18100A   25317.69049998 -.00000344  00000+0  00000+0 0  9992
2 43823   0.0414 104.1636 0000622  32.7490 293.0016  1.00270115 25462
METEOR-M2 2             
1 44387U 19038A   25317.86395556  .00000564  00000+0  26433-3 0  9997
2 44387  98.8942 297.2436 0000320 324.3235  35.7922 14.24274360330645
ARKTIKA-M 1             
1 47719U 21016A   25317.66620023 -.00000001  00000+0  00000+0 0  9991
2 47719  63.1731  87.9740 7187630 269.0171  15.8171  2.00615153 34467
FENGYUN 3E              
1 49008U 21062A   25317.85280101  .00000142  00000+0  87868-4 0  9992
2 49008  98.7478 318.7159 0001764  25.0059 335.1203 14.19874599226025
GOES 18                 
1 51850U 22021A   25317.71259992  .00000096  00000+0  00000+0 0  9991
2 51850   0.0459  94.7087 0000774 191.0356 246.8829  1.00272034  4436
NOAA 21 (JPSS-2)        
1 54234U 22150A   25317.77376507  .00000328  00000+0  17662-3 0  9995
2 54234  98.7415 254.4500 0002727  90.1399 270.0090 14.19512584155989
METEOSAT-12 (MTG-I1)    
1 54743U 22170C   25317.59698589 -.00000008  00000+0  00000+0 0  9999
2 54743   0.6921  26.8170 0001349 200.4499  40.2537  1.00271035 10812
TIANMU-1 03             
1 55973U 23039A   25317.84800575  .00037813  00000+0  95260-3 0  9997
2 55973  97.5111 119.7197 0004096 144.7513 215.4004 15.39793679147618
TIANMU-1 04             
1 55974U 23039B   25317.83354666  .00039243  00000+0  97810-3 0  9994
2 55974  97.5041 118.9082 0004844 142.5751 217.5833 15.40108600147615
TIANMU-1 05             
1 55975U 23039C   25317.88588108  .00036059  00000+0  91000-3 0  9997
2 55975  97.5087 119.4525 0003558 163.0326 197.1039 15.39753085147602
TIANMU-1 06             
1 55976U 23039D   25317.83672572  .00038848  00000+0  96669-3 0  9996
2 55976  97.5100 119.8439 0003987 159.1160 201.0249 15.40164216147618
FENGYUN 3G              
1 56232U 23055A   25317.77199762  .00085815  00000+0  12846-2 0  9998
2 56232  49.9960  16.8175 0020392  11.5050 348.6380 15.53960029146523
METEOR-M2 3             
1 57166U 23091A   25317.88352771  .00000134  00000+0  77130-4 0  9998
2 57166  98.6421  11.9208 0005040  80.4406 279.7342 14.24021280123878
TIANMU-1 07             
1 57399U 23101A   25317.84206229  .00022225  00000+0  82688-3 0  9998
2 57399  97.2923   8.3352 0004475 158.1712 201.9719 15.27504049128741
TIANMU-1 08             
1 57400U 23101B   25317.80871324  .00023345  00000+0  86840-3 0  9999
2 57400  97.2913   8.1057 0006221 168.5067 191.6315 15.27490194128733
TIANMU-1 09             
1 57401U 23101C   25317.86137164  .00022910  00000+0  85213-3 0  9993
2 57401  97.2869   7.6864 0005528 165.8185 194.3211 15.27501741128741
TIANMU-1 10             
1 57402U 23101D   25317.82990582  .00024525  00000+0  91184-3 0  9999
2 57402  97.2950   8.4749 0007206 170.7938 189.3434 15.27490362128736
FENGYUN 3F              
1 57490U 23111A   25317.84008814  .00000334  00000+0  17796-3 0  9996
2 57490  98.7117  26.5952 0001039  74.2409 285.8882 14.19883151118303
ARKTIKA-M 2             
1 58584U 23198A   25300.47014159  .00000154  00000+0  00000+0 0  9992
2 58584  63.2270 179.9212 6863194 268.2851  18.8164  2.00598966 13650
TIANMU-1 11             
1 58645U 23205A   25317.86379032  .00022436  00000+0  92236-3 0  9997
2 58645  97.3643 338.0011 0010849  51.8210 308.4003 15.24125034104692
TIANMU-1 12             
1 58646U 23205B   25317.88893076  .00018967  00000+0  78328-3 0  9999
2 58646  97.3627 337.8403 0008715  39.6657 320.5217 15.24027468104688
TIANMU-1 13             
1 58647U 23205C   25317.85706238  .00019262  00000+0  79528-3 0  9992
2 58647  97.3657 337.9986 0008456  22.2533 337.9069 15.24033343104677
TIANMU-1 14             
1 58648U 23205D   25317.84016907  .00019091  00000+0  78841-3 0  9996
2 58648  97.3588 337.3575 0009395  25.2694 334.9001 15.24018743104673
TIANMU-1 19             
1 58660U 23208A   25317.85473888  .00026015  00000+0  97773-3 0  9998
2 58660  97.4380  68.9672 0005340  12.8903 347.2471 15.27134248104416
TIANMU-1 20             
1 58661U 23208B   25317.86377507  .00025360  00000+0  91893-3 0  9990
2 58661  97.4316  69.3956 0007824  18.4621 341.6901 15.28330234104481
TIANMU-1 21             
1 58662U 23208C   25317.84365672  .00029402  00000+0  98940-3 0  9990
2 58662  97.4364  71.1576 0007208  14.5616 345.5831 15.30719038104572
TIANMU-1 22             
1 58663U 23208D   25317.85036869  .00024280  00000+0  91849-3 0  9995
2 58663  97.4373  69.0341 0004528  40.2085 319.9488 15.26936507104421
TIANMU-1 15             
1 58700U 24004A   25317.83846692  .00019970  00000+0  82156-3 0  9994
2 58700  97.4645 139.4194 0007344  41.6824 318.4971 15.24156143102942
TIANMU-1 16             
1 58701U 24004B   25317.81886031  .00003394  00000+0  14345-3 0  9992
2 58701  97.4583 138.8229 0006592  40.5131 319.6596 15.23902236102946
TIANMU-1 17             
1 58702U 24004C   25317.86997359  .00019545  00000+0  80918-3 0  9998
2 58702  97.4617 139.2685 0005822  42.6746 317.4942 15.23956524102946
TIANMU-1 18             
1 58703U 24004D   25317.85317442  .00019628  00000+0  81265-3 0  9995
2 58703  97.4635 139.4407 0005206  43.2197 316.9448 15.23957412102946
INSAT-3DS               
1 58990U 24033A   25317.71177497 -.00000157  00000+0  00000+0 0  9996
2 58990   0.0538 258.3705 0001408 341.0727 151.9916  1.00272595 44906
METEOR-M2 4             
1 59051U 24039A   25317.72362394  .00000188  00000+0  10385-3 0  9998
2 59051  98.6722 275.0940 0008150  75.2764 284.9316 14.22395004 88636
GOES 19                 
1 60133U 24119A   25317.79598645 -.00000248  00000+0  00000+0 0  9994
2 60133   0.0200 136.2371 0001141 153.2890 335.0033  1.00272312  4802
FENGYUN 3H              
1 65815U 25219A   25317.83720385  .00000323  00000+0  17242-3 0  9994
2 65815  98.6537 258.0620 0001060  57.0121 303.1158 14.19893019  6823
